{
  "type": "FeatureCollection",
  "features": [
    {
      "type": "Feature",
      "properties": {
        "norad_id": 32171,
        "name": "FENGYUN 1C DEB",
        "group": "fengyun-1c-debris",
        "lat": 19.516773329883716,
        "lon": -118.76663827279356,
        "alt_km": 749.8621595450613,
        "timestamp": "2025-12-14T09:36:23.322406+00:00",
        "meta_object_name": "FENGYUN 1C DEB",
        "meta_object_id": "1999-025CTR",
        "meta_epoch": "2025-12-12T23:36:33.645600",
        "meta_mean_motion": 13.42566828,
        "meta_eccentricity": 0.04886846,
        "meta_inclination": 102.8031,
        "meta_ra_of_asc_node": 244.0575,
        "meta_arg_of_pericenter": 5.4514,
        "meta_mean_anomaly": 9.5388,
        "meta_ephemeris_type": 0,
        "meta_classification_type": "U",
        "meta_norad_cat_id": 32171,
        "meta_element_set_no": 999,
        "meta_rev_at_epoch": 60619,
        "meta_bstar": 0.0065627296,
        "meta_mean_motion_dot": 7.521e-05,
        "meta_mean_motion_ddot": 0,
        "tle_line1": "1 32171U 99025CTR 25346.98372275  .00007521  00000+0  65627-2 0  9994",
        "tle_line2": "2 32171 102.8031 244.0575 0488684   5.4514   9.5388 13.42566828606195"
      },
      "geometry": {
        "type": "Point",
        "coordinates": [
          -118.76663827279356,
          19.516773329883716
        ]
      }
    },
    {
      "type": "Feature",
      "properties": {
        "norad_id": 32174,
        "name": "FENGYUN 1C DEB",
        "group": "fengyun-1c-debris",
        "lat": -23.858939567318544,
        "lon": 54.333230149949394,
        "alt_km": 845.1743644893677,
        "timestamp": "2025-12-14T09:36:23.322416+00:00",
        "meta_object_name": "FENGYUN 1C DEB",
        "meta_object_id": "1999-025CTU",
        "meta_epoch": "2025-12-08T09:45:57.975264",
        "meta_mean_motion": 14.17910967,
        "meta_eccentricity": 0.01499603,
        "meta_inclination": 98.6011,
        "meta_ra_of_asc_node": 44.6876,
        "meta_arg_of_pericenter": 258.4641,
        "meta_mean_anomaly": 99.9665,
        "meta_ephemeris_type": 0,
        "meta_classification_type": "U",
        "meta_norad_cat_id": 32174,
        "meta_element_set_no": 999,
        "meta_rev_at_epoch": 64044,
        "meta_bstar": 0.00054004697,
        "meta_mean_motion_dot": 1.19e-05,
        "meta_mean_motion_ddot": 0,
        "tle_line1": "1 32174U 99025CTU 25342.40692101  .00001190  00000+0  54005-3 0  9998",
        "tle_line2": "2 32174  98.6011  44.6876 0149960 258.4641  99.9665 14.17910967640445"
      },
      "geometry": {
        "type": "Point",
        "coordinates": [
          54.333230149949394,
          -23.858939567318544
        ]
      }
    },
    {
      "type": "Feature",
      "properties": {
        "norad_id": 32175,
        "name": "FENGYUN 1C DEB",
        "group": "fengyun-1c-debris",
        "lat": 80.60914264739327,
        "lon": -93.0193297719556,
        "alt_km": 972.0274101183413,
        "timestamp": "2025-12-14T09:36:23.322426+00:00",
        "meta_object_name": "FENGYUN 1C DEB",
        "meta_object_id": "1999-025CTV",
        "meta_epoch": "2025-12-13T05:38:52.418688",
        "meta_mean_motion": 13.94812593,
        "meta_eccentricity": 0.01522225,
        "meta_inclination": 98.8234,
        "meta_ra_of_asc_node": 335.7774,
        "meta_arg_of_pericenter": 321.7151,
        "meta_mean_anomaly": 37.3281,
        "meta_ephemeris_type": 0,
        "meta_classification_type": "U",
        "meta_norad_cat_id": 32175,
        "meta_element_set_no": 999,
        "meta_rev_at_epoch": 59847,
        "meta_bstar": 0.0044844572,
        "meta_mean_motion_dot": 6.587e-05,
        "meta_mean_motion_ddot": 0,
        "tle_line1": "1 32175U 99025CTV 25347.23532892  .00006587  00000+0  44845-2 0  9990",
        "tle_line2": "2 32175  98.8234 335.7774 0152222 321.7151  37.3281 13.94812593598476"
      },
      "geometry": {
        "type": "Point",
        "coordinates": [
          -93.0193297719556,
          80.60914264739327
        ]
      }
    },
    {
      "type": "Feature",
      "properties": {
        "norad_id": 32177,
        "name": "FENGYUN 1C DEB",
        "group": "fengyun-1c-debris",
        "lat": -45.747987700338086,
        "lon": 168.43118162844434,
        "alt_km": 748.5914820353546,
        "timestamp": "2025-12-14T09:36:23.322436+00:00",
        "meta_object_name": "FENGYUN 1C DEB",
        "meta_object_id": "1999-025CTX",
        "meta_epoch": "2025-12-12T07:06:01.597248",
        "meta_mean_motion": 14.56212488,
        "meta_eccentricity": 0.00519583,
        "meta_inclination": 99.0456,
        "meta_ra_of_asc_node": 355.5622,
        "meta_arg_of_pericenter": 46.4975,
        "meta_mean_anomaly": 314.0521,
        "meta_ephemeris_type": 0,
        "meta_classification_type": "U",
        "meta_norad_cat_id": 32177,
        "meta_element_set_no": 999,
        "meta_rev_at_epoch": 71032,
        "meta_bstar": 0.002207509,
        "meta_mean_motion_dot": 9.895e-05,
        "meta_mean_motion_ddot": 0,
        "tle_line1": "1 32177U 99025CTX 25346.29585182  .00009895  00000+0  22075-2 0  9993",
        "tle_line2": "2 32177  99.0456 355.5622 0051958  46.4975 314.0521 14.56212488710326"
      },
      "geometry": {
        "type": "Point",
        "coordinates": [
          168.43118162844434,
          -45.747987700338086
        ]
      }
    },
    {
      "type": "Feature",
      "properties": {
        "norad_id": 32178,
        "name": "FENGYUN 1C DEB",
        "group": "fengyun-1c-debris",
        "lat": -58.54481215533201,
        "lon": 152.81098033021917,
        "alt_km": 808.3828135546519,
        "timestamp": "2025-12-14T09:36:23.322446+00:00",
        "meta_object_name": "FENGYUN 1C DEB",
        "meta_object_id": "1999-025CTY",
        "meta_epoch": "2025-12-07T17:50:56.721120",
        "meta_mean_motion": 14.22943585,
        "meta_eccentricity": 0.00947686,
        "meta_inclination": 100.3035,
        "meta_ra_of_asc_node": 342.3342,
        "meta_arg_of_pericenter": 337.1658,
        "meta_mean_anomaly": 22.5314,
        "meta_ephemeris_type": 0,
        "meta_classification_type": "U",
        "meta_norad_cat_id": 32178,
        "meta_element_set_no": 999,
        "meta_rev_at_epoch": 63932,
        "meta_bstar": 0.0022460255,
        "meta_mean_motion_dot": 5.238e-05,
        "meta_mean_motion_ddot": 0,
        "tle_line1": "1 32178U 99025CTY 25341.74371205  .00005238  00000+0  22460-2 0  9993",
        "tle_line2": "2 32178 100.3035 342.3342 0094768 337.1658  22.5314 14.22943585639326"
      },
      "geometry": {
        "type": "Point",
        "coordinates": [
          152.81098033021917,
          -58.54481215533201
        ]
      }
    },
    {
      "type": "Feature",
      "properties": {
        "norad_id": 32179,
        "name": "FENGYUN 1C DEB",
        "group": "fengyun-1c-debris",
        "lat": 39.08560758203373,
        "lon": -135.48151461443763,
        "alt_km": 802.657586572007,
        "timestamp": "2025-12-14T09:36:23.322456+00:00",
        "meta_object_name": "FENGYUN 1C DEB",
        "meta_object_id": "1999-025CTZ",
        "meta_epoch": "2025-12-13T09:17:44.282112",
        "meta_mean_motion": 14.03680893,
        "meta_eccentricity": 0.01453902,
        "meta_inclination": 98.9097,
        "meta_ra_of_asc_node": 36.2053,
        "meta_arg_of_pericenter": 188.0977,
        "meta_mean_anomaly": 237.4524,
        "meta_ephemeris_type": 0,
        "meta_classification_type": "U",
        "meta_norad_cat_id": 32179,
        "meta_element_set_no": 999,
        "meta_rev_at_epoch": 65737,
        "meta_bstar": 0.00027376326,
        "meta_mean_motion_dot": 4.29e-06,
        "meta_mean_motion_ddot": 0,
        "tle_line1": "1 32179U 99025CTZ 25347.38731808  .00000429  00000+0  27376-3 0  9998",
        "tle_line2": "2 32179  98.9097  36.2053 0145390 188.0977 237.4524 14.03680893657374"
      },
      "geometry": {
        "type": "Point",
        "coordinates": [
          -135.48151461443763,
          39.08560758203373
        ]
      }
    },
    {
      "type": "Feature",
      "properties": {
        "norad_id": 32180,
        "name": "FENGYUN 1C DEB",
        "group": "fengyun-1c-debris",
        "lat": -61.40416485339849,
        "lon": 46.61033180338176,
        "alt_km": 963.1418047947527,
        "timestamp": "2025-12-14T09:36:23.322481+00:00",
        "meta_object_name": "FENGYUN 1C DEB",
        "meta_object_id": "1999-025CUA",
        "meta_epoch": "2025-12-11T09:04:15.508128",
        "meta_mean_motion": 13.82327177,
        "meta_eccentricity": 0.01363004,
        "meta_inclination": 99.5861,
        "meta_ra_of_asc_node": 25.4776,
        "meta_arg_of_pericenter": 214.0644,
        "meta_mean_anomaly": 169.2809,
        "meta_ephemeris_type": 0,
        "meta_classification_type": "U",
        "meta_norad_cat_id": 32180,
        "meta_element_set_no": 999,
        "meta_rev_at_epoch": 94249,
        "meta_bstar": 0.00016381188,
        "meta_mean_motion_dot": 1.43e-06,
        "meta_mean_motion_ddot": 0,
        "tle_line1": "1 32180U 99025CUA 25345.37795727  .00000143  00000+0  16381-3 0  9994",
        "tle_line2": "2 32180  99.5861  25.4776 0136300 214.0644 169.2809 13.82327177942493"
      },
      "geometry": {
        "type": "Point",
        "coordinates": [
          46.61033180338176,
          -61.40416485339849
        ]
      }
    }
  ]
}